{
  "norad_id": 63399,
  "name": "STARLINK-33531",
  "history": [
    {
      "epoch": "2026-03-28T17:38:45.233664Z",
      "apogee_km": 484.68675929291294,
      "perigee_km": 481.3798124385312,
      "latitude_deg": -1.53424500386147e-06,
      "longitude_deg": -91.39100238831621,
      "height_km": 482.276144178365,
      "semi_major_axis_km": 6861.170285865722,
      "eccentricity": 0.00024099,
      "inclination_deg": 42.9965,
      "raan_deg": 359.4489,
      "arg_perigee_deg": 71.3211,
      "mean_anomaly_deg": 288.7902,
      "mean_motion_rev_day": 15.2758528
    },
    {
      "epoch": "2026-03-28T23:55:22.944576Z",
      "apogee_km": 483.8843464058755,
      "perigee_km": 482.398193532601,
      "latitude_deg": -1.0325564812366213e-05,
      "longitude_deg": 172.71376627745315,
      "height_km": 482.99101024068125,
      "semi_major_axis_km": 6861.278269969238,
      "eccentricity": 0.0001083,
      "inclination_deg": 43.0035,
      "raan_deg": 357.9686,
      "arg_perigee_deg": 264.3677,
      "mean_anomaly_deg": 95.7051,
      "mean_motion_rev_day": 15.27549218
    },
    {
      "epoch": "2026-03-29T23:27:42.633792Z",
      "apogee_km": 483.73023609879147,
      "perigee_km": 481.961474718667,
      "latitude_deg": 2.1190704256689196e-06,
      "longitude_deg": 173.1261373719628,
      "height_km": 482.82602640400927,
      "semi_major_axis_km": 6860.982855408729,
      "eccentricity": 0.0001289,
      "inclination_deg": 43.0042,
      "raan_deg": 352.4297,
      "arg_perigee_deg": 256.7195,
      "mean_anomaly_deg": 103.3513,
      "mean_motion_rev_day": 15.27647877
    },
    {
      "epoch": "2026-03-29T23:27:42.634656Z",
      "apogee_km": 483.73003026930564,
      "perigee_km": 481.9616805481528,
      "latitude_deg": -1.7590226258558281e-07,
      "longitude_deg": 173.12613131500635,
      "height_km": 482.82597912761116,
      "semi_major_axis_km": 6860.982855408729,
      "eccentricity": 0.00012887,
      "inclination_deg": 43.0042,
      "raan_deg": 352.4297,
      "arg_perigee_deg": 256.7195,
      "mean_anomaly_deg": 103.3513,
      "mean_motion_rev_day": 15.27647877
    },
    {
      "epoch": "2026-03-30T10:26:46.721472Z",
      "apogee_km": 484.2460620948468,
      "perigee_km": 481.38737711803606,
      "latitude_deg": -9.308400416948951e-07,
      "longitude_deg": 5.325786530201471,
      "height_km": 481.9657811564241,
      "semi_major_axis_km": 6860.953719606441,
      "eccentricity": 0.00020833,
      "inclination_deg": 42.9981,
      "raan_deg": 349.8475,
      "arg_perigee_deg": 296.0581,
      "mean_anomaly_deg": 64.0056,
      "mean_motion_rev_day": 15.27657608
    }
  ]
}